MAKERSAT 0              
1 43016U 17073D   26095.61046917  .00024999  00000+0  72642-3 0  9994
2 43016  97.4720 337.6958 0114325 169.8133 190.5464 15.29101770455368
SIRION PATHFINDER-2     
1 43759U 18099B   26095.68862446  .00007563  00000+0  42092-3 0  9991
2 43759  97.4329 146.4762 0008916 181.2614 178.8597 15.13890526401652
CORVUS BC4              
1 43767U 18099K   26095.86336059  .00006113  00000+0  36024-3 0  9994
2 43767  97.4150 140.9619 0006955 245.5932 114.4573 15.11923216401472
M2 PATHFINDER           
1 45727U 20037E   26095.48640869  .00003914  00000+0  28475-3 0  9999
2 45727  97.8157 285.9049 0012284  43.1820 317.0366 15.04355735314569
NETSAT-4                
1 46504U 20068U   26095.47531637  .00021812  00000+0  52117-3 0  9995
2 46504  97.8638  98.0075 0004916 198.7202 161.3863 15.41519381304564
NETSAT-3                
1 46505U 20068V   26095.74836243  .00024309  00000+0  60520-3 0  9998
2 46505  97.8682  96.6175 0004060 216.2678 143.8292 15.40252682304526
NETSAT-1                
1 46506U 20068W   26095.52168094  .00016506  00000+0  52086-3 0  9995
2 46506  97.8758  91.5248 0003200 253.0342 107.0548 15.32938460304160
NETSAT-2                
1 46507U 20068X   26095.72980176  .00028587  00000+0  64870-3 0  9997
2 46507  97.8656  97.9501 0002223 224.5506 135.5562 15.43022165304552
GREENCUBE (IO-117)      
1 53109U 22080E   26094.56827725 -.00000003  00000+0  00000+0 0  9995
2 53109  70.1528 323.8593 0009014 305.8170  54.1652  6.42583190 87336
SITRO-AIS 5 (KATYS)     
1 57176U 23091L   26095.86700012  .00014984  00000+0  55185-3 0  9999
2 57176  97.5120 159.1470 0011383   5.7797 354.3572 15.27877584153293
SITRO-AIS 6 (CHIRKIN)   
1 57192U 23091AC  26095.82001781  .00007803  00000+0  31631-3 0  9992
2 57192  97.5127 158.5795 0012199   9.5320 350.6146 15.24855377153256
SITRO-AIS 8 (ANOKHIN)   
1 57193U 23091AD  26095.80760487  .00016977  00000+0  58068-3 0  9991
2 57193  97.5114 160.3989 0010435   2.9724 357.1576 15.30278861153371
SITRO-AIS 7 (FARTUSHNIY)
1 57194U 23091AE  26095.80924220  .00008267  00000+0  33768-3 0  9992
2 57194  97.5125 158.4286 0012106  10.5149 349.6340 15.24581098153248
SITRO-AIS 10 (BURDAEV)  
1 57199U 23091AK  26095.86510098  .00023559  00000+0  67252-3 0  9993
2 57199  97.5129 164.8123 0005910 340.8330  19.2690 15.36016384153651
SITRO-AIS 9 (SHCHUKIN)  
1 57201U 23091AM  26095.80508505  .00023908  00000+0  69162-3 0  9991
2 57201  97.5128 164.5338 0006120 341.1841  18.9175 15.35593888153634
SITRO-AIS 12 (SMIRENNIY)
1 57204U 23091AQ  26095.80893323  .00023230  00000+0  66652-3 0  9998
2 57204  97.5140 164.9612 0005671 334.7378  25.3587 15.35860772153653
SITRO-AIS 11 (SHEFFER)  
1 57208U 23091AU  26095.84095420  .00023118  00000+0  65543-3 0  9991
2 57208  97.5137 165.1982 0005560 333.7030  26.3931 15.36235397153673
SITRO-AIS 25            
1 59066U 24039R   26095.86873529  .00007385  00000+0  58230-3 0  9997
2 59066  95.3929 185.4126 0144895 220.1878 138.8563 14.92914808113938
SITRO-AIS 26            
1 59067U 24039S   26095.86056707  .00007672  00000+0  60749-3 0  9996
2 59067  95.3925 185.3187 0145211 220.7375 138.2920 14.92721377113929
SITRO-AIS 27            
1 59068U 24039T   26095.85067814  .00007408  00000+0  58159-3 0  9996
2 59068  95.3924 185.5510 0144432 219.5524 139.5093 14.93121140113947
SITRO-AIS 28            
1 59071U 24039U   26095.82979825  .00005936  00000+0  46630-3 0  9996
2 59071  95.3926 185.5805 0144364 219.5275 139.5353 14.93156174113941
GRBBETA                 
1 60237U 24128C   26095.46607167  .00004907  00000+0  33997-3 0  9997
2 60237  61.9883 111.2937 0048963 119.3116 241.2882 15.06072619 95313
OOV-CUBE (TUBSAT-30)    
1 60240U 24128F   26095.45249674  .00002993  00000+0  23402-3 0  9998
2 60240  61.9933 119.1263 0052274 117.8694 242.7706 15.02425780 95189
ROBUSTA-3A (MEDITERRAN*)
1 60243U 24128J   26095.74264576  .00007837  00000+0  47165-3 0  9995
2 60243  61.9849 104.2111 0049295 113.2505 247.3791 15.10588967 95478
LASARSAT                
1 62391U 24247Q   26094.03099426  .00055577  00000+0  12740-2 0  9998
2 62391  44.9765 317.4987 0005379 237.3439 122.6930 15.42003564 71856
CROCUBE                 
1 62394U 24247T   26095.01134442  .00039986  00000+0  87808-3 0  9992
2 62394  44.9735 310.3631 0005083 240.7464 119.2917 15.43418094 72028
FORESAIL-1 PRIME        
1 66778U 25276DS  26095.76738998  .00006957  00000+0  34490-3 0  9994
2 66778  97.4230 170.3882 0002680  33.9265 326.2140 15.18047594 19411
KNACKSAT-2              
1 67683U 98067XZ  26095.81892939  .00047225  00000+0  71168-3 0  9996
2 67683  51.6317 296.8195 0010840 286.1763  73.8034 15.54247426  9005
